GSAT-18                 
1 41793U 16060A   26160.49909235 -.00000060  00000+0  00000+0 0  9998
2 41793   0.0439 117.2294 0005671 313.6401  80.6689  1.00271117 35459
SKY MUSTER 2 (NBN1B)    
1 41794U 16060B   26159.94279441 -.00000227  00000+0  00000+0 0  9991
2 41794   0.0113 297.8542 0001601 135.5193 308.1720  1.00272750 35434
HIMAWARI-9              
1 41836U 16064A   26160.36972367 -.00000257  00000+0  00000+0 0  9990
2 41836   0.0345 150.1248 0000842 333.7433  47.7569  1.00272229 35132
SHIJIAN-17 (SJ-17)      
1 41838U 16065A   26160.51031904  .00000031  00000+0  00000+0 0  9992
2 41838   5.7324  72.6959 0001877  25.6287 230.6048  0.99853585 35124
GOES 16                 
1 41866U 16071A   26160.46365454 -.00000074  00000+0  00000+0 0  9992
2 41866   0.3199  85.6009 0000390 312.7885 281.6940  1.00270525 35025
TIANLIAN 1-04           
1 41869U 16072A   26160.49442572  .00000048  00000+0  00000+0 0  9996
2 41869   0.8490  82.9541 0041954  89.7157  80.0071  1.00269862 35222
WGS F8 (USA 272)        
1 41879U 16075A   26159.87244758 -.00000186  00000+0  00000+0 0  9990
2 41879   0.0057 354.5862 0000235 346.9821  19.5808  1.00270361 34737
FENGYUN 4A              
1 41882U 16077A   26160.29508830 -.00000340  00000+0  00000+0 0  9990
2 41882   2.3018  80.3704 0008327 151.5209 255.7921  1.00273462 34850
ECHOSTAR 19             
1 41893U 16079A   26160.46001693 -.00000122  00000+0  00000+0 0  9996
2 41893   0.0179   0.8972 0001284  78.0064 247.4519  1.00271092 34629
JCSAT-110A (JCSAT-15)   
1 41903U 16082A   26160.50628572 -.00000334  00000+0  00000+0 0  9993
2 41903   0.0178 348.5613 0000560 116.4084  85.2441  1.00270643 34688
STAR ONE D1             
1 41904U 16082B   26160.32521398 -.00000194  00000+0  00000+0 0  9996
2 41904   0.0221  59.2114 0002175  26.3817 205.1779  1.00272823 34697
TJS-2                   
1 41911U 17001A   26160.42630051  .00000010  00000+0  00000+0 0  9990
2 41911   0.8123  85.4353 0000618  27.8100   4.5728  1.00272619 34644
SBIRS GEO-4 (USA 273)   
1 41937U 17004A   26160.27473611  .00000140  00000+0  00000+0 0  9995
2 41937   2.2272  43.0469 0002132  30.2755 304.1415  1.00272105 34516
HISPASAT 36W-1          
1 41942U 17006A   26160.19212103 -.00000227  00000+0  00000+0 0  9998
2 41942   0.0181 229.2595 0001232 205.2457 216.2381  1.00273041 34164
TELKOM 3S               
1 41944U 17007A   26160.43652720  .00000000  00000+0  00000+0 0  9999
2 41944   0.0177 336.9318 0002104 108.9667  87.0635  1.00266803 34064
INTELSAT 32E (IS-32E)   
1 41945U 17007B   26160.08652259 -.00000252  00000+0  00000+0 0  9998
2 41945   0.0023 348.0424 0000672 336.8096 280.6015  1.00274840 34145
ECHOSTAR 23             
1 42070U 17014A   26160.03496279  .00000000  00000+0  00000+0 0  9999
2 42070   0.0199 341.1115 0001490  88.1607  90.8350  1.00276522 33842
WGS F9 (USA 275)        
1 42075U 17016A   26160.30253184 -.00000080  00000+0  00000+0 0  9991
2 42075   0.0087 282.7949 0000204 202.7966 229.0052  1.00270310 33813
SES-10                  
1 42432U 17017A   26160.39988632 -.00000256  00000+0  00000+0 0  9996
2 42432   0.0201  30.1121 0002817  55.8258 248.9028  1.00269318 33671
CHINASAT 16 (SJ-13)     
1 42662U 17018A   26160.36374366 -.00000335  00000+0  00000+0 0  9990
2 42662   0.0962  91.1721 0004189 138.2449 269.8268  1.00275407 33679
KOREASAT 7              
1 42691U 17023A   26160.43609388 -.00000345  00000+0  00000+0 0  9992
2 42691   0.0195 352.0733 0000525  70.6815 107.9376  1.00271264 33294
SGDC                    
1 42692U 17023B   26159.49444697 -.00000234  00000+0  00000+0 0  9994
2 42692   0.0282  64.8181 0002797  22.5515 272.6721  1.00271936 33316
GSAT-9                  
1 42695U 17024A   26160.50377236 -.00000270  00000+0  00000+0 0  9996
2 42695   0.0077 315.9853 0002564 118.2404 102.3593  1.00272347 33222
INMARSAT 5-F4           
1 42698U 17025A   26160.13918432  .00000092  00000+0  00000+0 0  9999
2 42698   0.0177 351.8920 0000065 193.2614 178.9583  1.00273429 33196
SES-15                  
1 42709U 17026A   26159.53201694  .00000076  00000+0  00000+0 0  9992
2 42709   0.0197 332.0701 0000516  88.0806 259.1449  1.00270105  7343
QZS-2 (MICHIBIKI-2)     
1 42738U 17028A   26159.56585652 -.00000150  00000+0  00000+0 0  9992
2 42738  39.4403 243.2817 0760493 269.1681  89.5416  1.00286250  7541
VIASAT-2                
1 42740U 17029A   26160.11415045 -.00000249  00000+0  00000+0 0  9996
2 42740   0.0187 291.3466 0000171 135.2981 162.0599  1.00271449 33123
EUTELSAT 172B           
1 42741U 17029B   26160.49650519  .00000012  00000+0  00000+0 0  9992
2 42741   0.0417 140.2081 0000051  63.8474  44.5629  1.00271986 33668
GSAT-19                 
1 42747U 17031A   26160.49389234  .00000142  00000+0  00000+0 0  9998
2 42747   0.1124  90.5949 0006874 350.9443  41.9894  1.00271642 33074
ECHOSTAR 21             
1 42749U 17032A   26160.34384742  .00000080  00000+0  00000+0 0  9995
2 42749   1.7716 355.1659 0002243  88.7214 307.8833  1.00271210 33029
BULGARIASAT-1           
1 42801U 17038A   26160.05701573  .00000027  00000+0  00000+0 0  9994
2 42801   0.0199 281.2746 0003429 171.9526 186.6324  1.00269313 32768
HELLAS-SAT 3            
1 42814U 17040A   26159.99308707  .00000169  00000+0  00000+0 0  9991
2 42814   0.0579  55.5659 0004626 354.8875 243.4447  1.00273758 32720
